{
    "links": {
        "self": "http://www.neowsapp.com/rest/v1/neo/3644018?api_key=iIulBulltgU6a56xZRHN4H3l9WmuAYTsLGpBGhQ2"
    },
    "id": "3644018",
    "neo_reference_id": "3644018",
    "name": "(2013 LH29)",
    "designation": "2013 LH29",
    "nasa_jpl_url": "http://ssd.jpl.nasa.gov/sbdb.cgi?sstr=3644018",
    "absolute_magnitude_h": 24.6,
    "estimated_diameter": {
        "kilometers": {
            "estimated_diameter_min": 0.0319561887,
            "estimated_diameter_max": 0.0714562102
        },
        "meters": {
            "estimated_diameter_min": 31.9561886721,
            "estimated_diameter_max": 71.4562101727
        },
        "miles": {
            "estimated_diameter_min": 0.0198566489,
            "estimated_diameter_max": 0.0444008168
        },
        "feet": {
            "estimated_diameter_min": 104.8431420431,
            "estimated_diameter_max": 234.436392583
        }
    },
    "is_potentially_hazardous_asteroid": false,
    "close_approach_data": [
        {
            "close_approach_date": "2013-06-29",
            "close_approach_date_full": "2013-Jun-29 06:35",
            "epoch_date_close_approach": 1372487700000,
            "relative_velocity": {
                "kilometers_per_second": "8.5504922388",
                "kilometers_per_hour": "30781.772059648",
                "miles_per_hour": "19126.5960889518"
            },
            "miss_distance": {
                "astronomical": "0.0596947288",
                "lunar": "23.2212495032",
                "kilometers": "8930204.278707656",
                "miles": "5548971.6295554128"
            },
            "orbiting_body": "Earth"
        }
    ],
    "orbital_data": {
        "orbit_id": "10",
        "orbit_determination_date": "2017-04-06 08:45:35",
        "first_observation_date": "2013-06-14",
        "last_observation_date": "2013-06-29",
        "data_arc_in_days": 15,
        "observations_used": 35,
        "orbit_uncertainty": "8",
        "minimum_orbit_intersection": ".0570053",
        "jupiter_tisserand_invariant": "4.467",
        "epoch_osculation": "2456464.5",
        "eccentricity": ".3006491275274772",
        "semi_major_axis": "1.497781654253499",
        "inclination": "13.93950027181245",
        "ascending_node_longitude": "91.30586194428817",
        "orbital_period": "669.5317660872258",
        "perihelion_distance": "1.047474906675523",
        "perihelion_argument": "209.1645526833405",
        "aphelion_distance": "1.948088401831475",
        "perihelion_time": "2456495.772990728957",
        "mean_anomaly": "343.1848506184876",
        "mean_motion": ".5376892004749175",
        "equinox": "J2000",
        "orbit_class": {
            "orbit_class_type": "AMO",
            "orbit_class_description": "Near-Earth asteroid orbits similar to that of 1221 Amor",
            "orbit_class_range": "1.017 AU < q (perihelion) < 1.3 AU"
        }
    },
    "is_sentry_object": false
}